ONEWEB-0414             
1 50491U 21132Y   24338.36737245  .00000118  00000+0  26684-3 0  9993
2 50491  87.9104  87.0350 0001901  97.4680 262.6668 13.18685916149006
ONEWEB-0417             
1 50492U 21132Z   24338.07177452  .00000054  00000+0  10391-3 0  9997
2 50492  87.9110  87.1087 0001682 109.1875 250.9439 13.18687451148949
ONEWEB-0418             
1 50493U 21132AA  24338.00524612 -.00000006  00000+0 -47195-4 0  9997
2 50493  87.9106  87.1184 0001988 114.1285 246.0055 13.18686816148981
ONEWEB-0419             
1 50494U 21132AB  24337.56749200  .00000149  00000+0  34472-3 0  9999
2 50494  87.9115  87.2170 0001531 115.9986 244.1303 13.18684708148858
ONEWEB-0420             
1 50495U 21132AC  24338.29306517  .00000174  00000+0  40912-3 0  9995
2 50495  87.9104  87.0810 0001492  92.8860 267.2442 13.18688854148953
ONEWEB-0421             
1 50496U 21132AD  24338.05911568  .00000030  00000+0  42632-4 0  9991
2 50496  87.9106  87.1062 0001948  96.9402 263.1952 13.18687926148960
ONEWEB-0424             
1 50497U 21132AE  24337.56276128  .00000096  00000+0  21135-3 0  9999
2 50497  87.9121  87.2032 0001373 119.0603 241.0667 13.18685655148907
ONEWEB-0426             
1 50498U 21132AF  24337.75245178  .00000040  00000+0  69594-4 0  9993
2 50498  87.9102  87.1759 0002249 107.3968 252.7410 13.18687320147599
